INTELSAT 902 (IS-902)   
1 26900U 01039A   26198.47188061 -.00000295  00000+0  00000+0 0  9996
2 26900   6.1904  71.4099 0004189  44.3428 299.3155  1.00271814 90991
INTELSAT 904 (IS-904)   
1 27380U 02007A   26198.90326447 -.00000237  00000+0  00000+0 0  9991
2 27380   6.9948  68.8126 0005400  27.1938 133.3994  1.00270406 52074
DIRECTV 5 (TEMPO 1)     
1 27426U 02023A   26198.60254741 -.00000069  00000+0  00000+0 0  9997
2 27426   4.9537  74.9297 0003190  48.7166 278.5717  1.00271724 88427
INTELSAT 905 (IS-905)   
1 27438U 02027A   26198.63725389  .00000082  00000+0  00000+0 0  9992
2 27438   6.8280  69.4293 0003516  48.4479 269.7727  1.00272193 51667
GALAXY 3C (G-3C)        
1 27445U 02030A   26198.81942775 -.00000163  00000+0  00000+0 0  9995
2 27445   3.8113  77.5805 0001653  31.4456  26.7582  1.00270872 46805
INTELSAT 906 (IS-906)   
1 27513U 02041A   26198.83150115  .00000001  00000+0  00000+0 0  9994
2 27513   5.8773  72.5407 0003719  28.3120 198.2986  1.00273689 87331
GALAXY 13 (HORIZONS-1)  
1 27954U 03044A   26198.73724712  .00000123  00000+0  00000+0 0  9991
2 27954   1.4953  83.4691 0002112  34.6454 292.8296  1.00272424 46879
INTELSAT 10-02          
1 28358U 04022A   26198.83737840 -.00000020  00000+0  00000+0 0  9991
2 28358   0.0550 254.9263 0000213   2.1127 339.0590  1.00270357 80864
DIRECTV 8               
1 28659U 05019A   26198.74331382  .00000000  00000+0  00000+0 0  9990
2 28659   0.0222  65.6449 0003106  55.8393 322.6185  1.00270482 77370
GALAXY 28 (G-28)        
1 28702U 05022A   26198.90413113 -.00000211  00000+0  00000+0 0  9999
2 28702   3.3748  78.5523 0002488  32.1118 123.4405  1.00271391 52284
GALAXY 16 (G-16)        
1 29236U 06023A   26198.88976965 -.00000136  00000+0  00000+0 0  9996
2 29236   0.0245 149.5441 0002589 326.2932  41.1663  1.00271508 73289
DIRECTV 9S              
1 29494U 06043A   26198.60428075 -.00000124  00000+0  00000+0 0  9995
2 29494   2.4975  80.5356 0005002  32.3023 298.9181  1.00271436 51686
GALAXY 17 (G-17)        
1 31307U 07016B   26198.89262968 -.00000216  00000+0  00000+0 0  9992
2 31307   3.0475  79.5134 0003658  36.1437  56.3670  1.00271324 70116
INTELSAT 11 (IS-11)     
1 32253U 07044B   26198.83643753 -.00000216  00000+0  00000+0 0  9993
2 32253   3.6434  78.2975 0004312  99.9073  49.5653  0.99052851 68759
HORIZONS-2              
1 32388U 07063B   26198.89488301 -.00000263  00000+0  00000+0 0  9997
2 32388   2.6795  80.2498 0003560  17.6992  86.1019  1.00273050 68124
DIRECTV 11              
1 32729U 08013A   26198.88976965 -.00000134  00000+0  00000+0 0  9996
2 32729   0.0040 261.9394 0000073 107.4032 147.4816  1.00269733 45900
GALAXY 18 (G-18)        
1 32951U 08024A   26198.59994740  .00000016  00000+0  00000+0 0  9992
2 32951   0.0165  78.4344 0002879  36.8080 273.1310  1.00271154 46159
GALAXY 19 (G-19)        
1 33376U 08045A   26198.81890774 -.00000148  00000+0  00000+0 0  9991
2 33376   0.0496 242.4559 0002447 244.1308   6.8484  1.00270946 65216
FM-5                    
1 35493U 09034A   26198.89245633 -.00000209  00000+0  00000+0 0  9996
2 35493   0.0360 248.4217 0000762 114.2287 168.1635  1.00271429 46953
INTELSAT 14 (IS-14)     
1 36097U 09064A   26198.90057779  .00000000  00000+0  00000+0 0  9992
2 36097   0.0177  44.2571 0002437  73.3246  97.3459  1.00269953 60914
INTELSAT 15 (IS-15)     
1 36106U 09067A   26198.92633409 -.00000194  00000+0  00000+0 0  9993
2 36106   0.0161  45.5381 0002279  70.4516 238.3629  1.00272858 41534
DIRECTV 12              
1 36131U 09075A   26198.60402075 -.00000113  00000+0  00000+0 0  9999
2 36131   0.0447 222.1598 0000254 342.1549 205.8215  1.00272808 46853
INTELSAT 16 (IS-16)     
1 36397U 10006A   26198.89436301 -.00000253  00000+0  00000+0 0  9994
2 36397   0.0168  60.3280 0002343  75.2782  45.8557  1.00271907 59967
XM-5                    
1 37185U 10053A   26198.53021456 -.00000034  00000+0  00000+0 0  9991
2 37185   0.0620 264.4394 0001599 309.7763 156.8058  1.00279095 57788
INTELSAT 17 (IS-17)     
1 37238U 10065B   26198.92252073 -.00000011  00000+0  00000+0 0  9992
2 37238   0.0053  82.0607 0002658  40.6707 211.1043  1.00275709 53552
INTELSAT 28 (IS-28)     
1 37392U 11016A   26198.90317780 -.00000235  00000+0  00000+0 0  9993
2 37392   1.8838  82.2502 0003790  41.0803 105.8174  1.00271871 53593
INTELSAT 18 (IS-18)     
1 37834U 11056A   26198.87382292  .00000044  00000+0  00000+0 0  9991
2 37834   0.0395 263.1351 0001855 224.7260 302.3916  1.00272693 54112
INTELSAT 22 (IS-22)     
1 38098U 12011A   26198.92373407 -.00000067  00000+0  00000+0 0  9996
2 38098   0.0184  56.3454 0001843  71.7379 212.2930  1.00271966  7491
INTELSAT 19 (IS-19)     
1 38356U 12030A   26198.87104957 -.00000066  00000+0  00000+0 0  9999
2 38356   0.0176  43.8204 0002894  72.3510 299.0714  1.00271807 50758
INTELSAT 20 (IS-20)     
1 38740U 12043A   26198.92304073 -.00000033  00000+0  00000+0 0  9991
2 38740   0.0127  68.2811 0001296 113.6257 154.6244  1.00271161 51059
INTELSAT 21 (IS-21)     
1 38749U 12045A   26198.75544721 -.00000294  00000+0  00000+0 0  9998
2 38749   0.0479 244.3475 0001652 243.9533  21.2299  1.00272343 50838
